{
  "type": "FeatureCollection",
  "features": [
    {
      "type": "Feature",
      "properties": {
        "norad_id": 24946,
        "name": "IRIDIUM 33",
        "group": "iridium-33-debris",
        "lat": 48.70866264711011,
        "lon": 75.25431478429441,
        "alt_km": 775.1565111495065,
        "timestamp": "2025-12-05T19:30:25.951169+00:00",
        "meta_object_name": "IRIDIUM 33",
        "meta_object_id": "1997-051C",
        "meta_epoch": "2025-12-05T07:33:56.328192",
        "meta_mean_motion": 14.35029059,
        "meta_eccentricity": 0.00062831,
        "meta_inclination": 86.3872,
        "meta_ra_of_asc_node": 71.3378,
        "meta_arg_of_pericenter": 228.7454,
        "meta_mean_anomaly": 131.3201,
        "meta_ephemeris_type": 0,
        "meta_classification_type": "U",
        "meta_norad_cat_id": 24946,
        "meta_element_set_no": 999,
        "meta_rev_at_epoch": 47728,
        "meta_bstar": 0.00023540452,
        "meta_mean_motion_dot": 6.9e-06,
        "meta_mean_motion_ddot": 0,
        "tle_line1": "1 24946U 97051C   25339.31523528  .00000690  00000+0  23540-3 0  9999",
        "tle_line2": "2 24946  86.3872  71.3378 0006283 228.7454 131.3201 14.35029059477288"
      },
      "geometry": {
        "type": "Point",
        "coordinates": [
          75.25431478429441,
          48.70866264711011
        ]
      }
    },
    {
      "type": "Feature",
      "properties": {
        "norad_id": 33773,
        "name": "IRIDIUM 33 DEB",
        "group": "iridium-33-debris",
        "lat": 18.431197184317423,
        "lon": -117.67734697732985,
        "alt_km": 739.932800987166,
        "timestamp": "2025-12-05T19:30:25.951210+00:00",
        "meta_object_name": "IRIDIUM 33 DEB",
        "meta_object_id": "1997-051L",
        "meta_epoch": "2025-12-05T07:06:49.449888",
        "meta_mean_motion": 14.43231542,
        "meta_eccentricity": 0.00116999,
        "meta_inclination": 86.4014,
        "meta_ra_of_asc_node": 63.7431,
        "meta_arg_of_pericenter": 169.222,
        "meta_mean_anomaly": 190.9234,
        "meta_ephemeris_type": 0,
        "meta_classification_type": "U",
        "meta_norad_cat_id": 33773,
        "meta_element_set_no": 999,
        "meta_rev_at_epoch": 88240,
        "meta_bstar": 0.00063479208,
        "meta_mean_motion_dot": 2.156e-05,
        "meta_mean_motion_ddot": 0,
        "tle_line1": "1 33773U 97051L   25339.29640567  .00002156  00000+0  63479-3 0  9991",
        "tle_line2": "2 33773  86.4014  63.7431 0011699 169.2220 190.9234 14.43231542882409"
      },
      "geometry": {
        "type": "Point",
        "coordinates": [
          -117.67734697732985,
          18.431197184317423
        ]
      }
    },
    {
      "type": "Feature",
      "properties": {
        "norad_id": 33775,
        "name": "IRIDIUM 33 DEB",
        "group": "iridium-33-debris",
        "lat": -70.11544396743022,
        "lon": 42.385469029729464,
        "alt_km": 764.8678719223044,
        "timestamp": "2025-12-05T19:30:25.951226+00:00",
        "meta_object_name": "IRIDIUM 33 DEB",
        "meta_object_id": "1997-051N",
        "meta_epoch": "2025-12-05T06:48:23.493600",
        "meta_mean_motion": 14.41443085,
        "meta_eccentricity": 0.00134409,
        "meta_inclination": 86.3642,
        "meta_ra_of_asc_node": 52.7362,
        "meta_arg_of_pericenter": 178.1414,
        "meta_mean_anomaly": 246.9711,
        "meta_ephemeris_type": 0,
        "meta_classification_type": "U",
        "meta_norad_cat_id": 33775,
        "meta_element_set_no": 999,
        "meta_rev_at_epoch": 88033,
        "meta_bstar": 0.00063298297,
        "meta_mean_motion_dot": 2.073e-05,
        "meta_mean_motion_ddot": 0,
        "tle_line1": "1 33775U 97051N   25339.28360525  .00002073  00000+0  63298-3 0  9992",
        "tle_line2": "2 33775  86.3642  52.7362 0013440 178.1414 246.9711 14.41443085880335"
      },
      "geometry": {
        "type": "Point",
        "coordinates": [
          42.385469029729464,
          -70.11544396743022
        ]
      }
    },
    {
      "type": "Feature",
      "properties": {
        "norad_id": 33776,
        "name": "IRIDIUM 33 DEB",
        "group": "iridium-33-debris",
        "lat": -59.57580448429863,
        "lon": -90.16781223183987,
        "alt_km": 762.8798549754156,
        "timestamp": "2025-12-05T19:30:25.951239+00:00",
        "meta_object_name": "IRIDIUM 33 DEB",
        "meta_object_id": "1997-051P",
        "meta_epoch": "2025-12-05T06:58:29.642304",
        "meta_mean_motion": 14.38212006,
        "meta_eccentricity": 0.00135433,
        "meta_inclination": 86.4037,
        "meta_ra_of_asc_node": 83.9038,
        "meta_arg_of_pericenter": 216.0996,
        "meta_mean_anomaly": 201.6336,
        "meta_ephemeris_type": 0,
        "meta_classification_type": "U",
        "meta_norad_cat_id": 33776,
        "meta_element_set_no": 999,
        "meta_rev_at_epoch": 87975,
        "meta_bstar": 0.0005583743,
        "meta_mean_motion_dot": 1.716e-05,
        "meta_mean_motion_ddot": 0,
        "tle_line1": "1 33776U 97051P   25339.29062086  .00001716  00000+0  55837-3 0  9998",
        "tle_line2": "2 33776  86.4037  83.9038 0013543 216.0996 201.6336 14.38212006879750"
      },
      "geometry": {
        "type": "Point",
        "coordinates": [
          -90.16781223183987,
          -59.57580448429863
        ]
      }
    },
    {
      "type": "Feature",
      "properties": {
        "norad_id": 33777,
        "name": "IRIDIUM 33 DEB",
        "group": "iridium-33-debris",
        "lat": -44.618138836185686,
        "lon": 34.63487183176574,
        "alt_km": 711.4132499995867,
        "timestamp": "2025-12-05T19:30:25.951252+00:00",
        "meta_object_name": "IRIDIUM 33 DEB",
        "meta_object_id": "1997-051Q",
        "meta_epoch": "2025-12-05T04:51:45.805536",
        "meta_mean_motion": 14.5552579,
        "meta_eccentricity": 0.00050741,
        "meta_inclination": 86.3795,
        "meta_ra_of_asc_node": 38.4821,
        "meta_arg_of_pericenter": 284.4573,
        "meta_mean_anomaly": 75.6072,
        "meta_ephemeris_type": 0,
        "meta_classification_type": "U",
        "meta_norad_cat_id": 33777,
        "meta_element_set_no": 999,
        "meta_rev_at_epoch": 88424,
        "meta_bstar": 0.0019128945,
        "meta_mean_motion_dot": 8.353e-05,
        "meta_mean_motion_ddot": 0,
        "tle_line1": "1 33777U 97051Q   25339.20261349  .00008353  00000+0  19129-2 0  9990",
        "tle_line2": "2 33777  86.3795  38.4821 0005074 284.4573  75.6072 14.55525790884248"
      },
      "geometry": {
        "type": "Point",
        "coordinates": [
          34.63487183176574,
          -44.618138836185686
        ]
      }
    },
    {
      "type": "Feature",
      "properties": {
        "norad_id": 33850,
        "name": "IRIDIUM 33 DEB",
        "group": "iridium-33-debris",
        "lat": -73.23162228865215,
        "lon": -134.58566757564057,
        "alt_km": 756.2243499792903,
        "timestamp": "2025-12-05T19:30:25.951265+00:00",
        "meta_object_name": "IRIDIUM 33 DEB",
        "meta_object_id": "1997-051T",
        "meta_epoch": "2025-12-05T05:18:21.032064",
        "meta_mean_motion": 14.42122064,
        "meta_eccentricity": 0.00114707,
        "meta_inclination": 86.3425,
        "meta_ra_of_asc_node": 33.4125,
        "meta_arg_of_pericenter": 184.4729,
        "meta_mean_anomaly": 238.9261,
        "meta_ephemeris_type": 0,
        "meta_classification_type": "U",
        "meta_norad_cat_id": 33850,
        "meta_element_set_no": 999,
        "meta_rev_at_epoch": 88044,
        "meta_bstar": 0.0007830147,
        "meta_mean_motion_dot": 2.595e-05,
        "meta_mean_motion_ddot": 0,
        "tle_line1": "1 33850U 97051T   25339.22107676  .00002595  00000+0  78301-3 0  9996",
        "tle_line2": "2 33850  86.3425  33.4125 0011470 184.4729 238.9261 14.42122064880446"
      },
      "geometry": {
        "type": "Point",
        "coordinates": [
          -134.58566757564057,
          -73.23162228865215
        ]
      }
    },
    {
      "type": "Feature",
      "properties": {
        "norad_id": 33853,
        "name": "IRIDIUM 33 DEB",
        "group": "iridium-33-debris",
        "lat": -85.98195214308309,
        "lon": -92.0988578949379,
        "alt_km": 758.0232086786846,
        "timestamp": "2025-12-05T19:30:25.951278+00:00",
        "meta_object_name": "IRIDIUM 33 DEB",
        "meta_object_id": "1997-051W",
        "meta_epoch": "2025-12-05T07:58:52.631040",
        "meta_mean_motion": 13.98988574,
        "meta_eccentricity": 0.02067847,
        "meta_inclination": 86,
        "meta_ra_of_asc_node": 353.06,
        "meta_arg_of_pericenter": 258.7314,
        "meta_mean_anomaly": 113.8665,
        "meta_ephemeris_type": 0,
        "meta_classification_type": "U",
        "meta_norad_cat_id": 33853,
        "meta_element_set_no": 999,
        "meta_rev_at_epoch": 85242,
        "meta_bstar": 0.0039922227,
        "meta_mean_motion_dot": 6.943e-05,
        "meta_mean_motion_ddot": 0,
        "tle_line1": "1 33853U 97051W   25339.33255360  .00006943  00000+0  39922-2 0  9991",
        "tle_line2": "2 33853  86.0000 353.0600 0206784 258.7314 113.8665 13.98988574852425"
      },
      "geometry": {
        "type": "Point",
        "coordinates": [
          -92.0988578949379,
          -85.98195214308309
        ]
      }
    }
  ]
}